{
  "links" : {
    "next" : "https://api.nasa.gov/neo/rest/v1/feed?start_date=1999-04-16&end_date=1999-04-16&detailed=true&api_key=t0TVs3DtDT2H8Oy2Zy8m2eVrNsAVKAexjcZXUckd",
    "prev" : "https://api.nasa.gov/neo/rest/v1/feed?start_date=1999-04-14&end_date=1999-04-14&detailed=true&api_key=t0TVs3DtDT2H8Oy2Zy8m2eVrNsAVKAexjcZXUckd",
    "self" : "https://api.nasa.gov/neo/rest/v1/feed?start_date=1999-04-15&end_date=1999-04-15&detailed=true&api_key=t0TVs3DtDT2H8Oy2Zy8m2eVrNsAVKAexjcZXUckd"
  },
  "element_count" : 3,
  "near_earth_objects" : {
    "1999-04-15" : [ {
      "links" : {
        "self" : "https://api.nasa.gov/neo/rest/v1/neo/3092221?api_key=t0TVs3DtDT2H8Oy2Zy8m2eVrNsAVKAexjcZXUckd"
      },
      "neo_reference_id" : "3092221",
      "name" : "(1999 HC1)",
      "nasa_jpl_url" : "http://ssd.jpl.nasa.gov/sbdb.cgi?sstr=3092221",
      "absolute_magnitude_h" : 24.5,
      "estimated_diameter" : {
        "kilometers" : {
          "estimated_diameter_min" : 0.0334622374,
          "estimated_diameter_max" : 0.0748238376
        },
        "meters" : {
          "estimated_diameter_min" : 33.4622374455,
          "estimated_diameter_max" : 74.8238376074
        },
        "miles" : {
          "estimated_diameter_min" : 0.0207924639,
          "estimated_diameter_max" : 0.0464933628
        },
        "feet" : {
          "estimated_diameter_min" : 109.7842471007,
          "estimated_diameter_max" : 245.4850393757
        }
      },
      "is_potentially_hazardous_asteroid" : false,
      "close_approach_data" : [ {
        "close_approach_date" : "1999-04-15",
        "epoch_date_close_approach" : 924159600000,
        "relative_velocity" : {
          "kilometers_per_second" : "7.1564130178",
          "kilometers_per_hour" : "25763.0868641988",
          "miles_per_hour" : "16008.1802795906"
        },
        "miss_distance" : {
          "astronomical" : "0.0190006687",
          "lunar" : "7.3912596703",
          "kilometers" : "2842459.5",
          "miles" : "1766222.5"
        },
        "orbiting_body" : "Earth"
      } ],
      "orbital_data" : {
        "orbit_id" : "11",
        "orbit_determination_date" : "2017-04-06 09:17:29",
        "orbit_uncertainty" : "9",
        "minimum_orbit_intersection" : ".00855592",
        "jupiter_tisserand_invariant" : "3.630",
        "epoch_osculation" : "2451287.5",
        "eccentricity" : ".5074888675333802",
        "semi_major_axis" : "2.03956420548366",
        "inclination" : "1.286721018997596",
        "ascending_node_longitude" : "28.55792605217838",
        "orbital_period" : "1063.909039918612",
        "perihelion_distance" : "1.004508076581139",
        "perihelion_argument" : "159.1934315533282",
        "aphelion_distance" : "3.07462033438618",
        "perihelion_time" : "2451269.935848060506",
        "mean_anomaly" : "5.943266257707098",
        "mean_motion" : ".3383747919159891",
        "equinox" : "J2000"
      }
    }, {
      "links" : {
        "self" : "https://api.nasa.gov/neo/rest/v1/neo/3152317?api_key=t0TVs3DtDT2H8Oy2Zy8m2eVrNsAVKAexjcZXUckd"
      },
      "neo_reference_id" : "3152317",
      "name" : "(2003 GQ22)",
      "nasa_jpl_url" : "http://ssd.jpl.nasa.gov/sbdb.cgi?sstr=3152317",
      "absolute_magnitude_h" : 21.2,
      "estimated_diameter" : {
        "kilometers" : {
          "estimated_diameter_min" : 0.1529519353,
          "estimated_diameter_max" : 0.3420109247
        },
        "meters" : {
          "estimated_diameter_min" : 152.9519353442,
          "estimated_diameter_max" : 342.0109247198
        },
        "miles" : {
          "estimated_diameter_min" : 0.095039897,
          "estimated_diameter_max" : 0.2125156703
        },
        "feet" : {
          "estimated_diameter_min" : 501.8108275547,
          "estimated_diameter_max" : 1122.0831222578
        }
      },
      "is_potentially_hazardous_asteroid" : true,
      "close_approach_data" : [ {
        "close_approach_date" : "1999-04-15",
        "epoch_date_close_approach" : 924159600000,
        "relative_velocity" : {
          "kilometers_per_second" : "15.2023352116",
          "kilometers_per_hour" : "54728.406761706",
          "miles_per_hour" : "34006.1036347945"
        },
        "miss_distance" : {
          "astronomical" : "0.3165492895",
          "lunar" : "123.1376800537",
          "kilometers" : "47355100",
          "miles" : "29425096"
        },
        "orbiting_body" : "Earth"
      } ],
      "orbital_data" : {
        "orbit_id" : "19",
        "orbit_determination_date" : "2017-04-06 09:14:11",
        "orbit_uncertainty" : "0",
        "minimum_orbit_intersection" : ".0254945",
        "jupiter_tisserand_invariant" : "6.737",
        "epoch_osculation" : "2458000.5",
        "eccentricity" : ".182027064622519",
        "semi_major_axis" : ".8720358623638715",
        "inclination" : "17.02033806514454",
        "ascending_node_longitude" : "199.5146488823091",
        "orbital_period" : "297.4403923341348",
        "perihelion_distance" : ".713301734092209",
        "perihelion_argument" : "168.7740190179003",
        "aphelion_distance" : "1.030769990635534",
        "perihelion_time" : "2457939.320228294719",
        "mean_anomaly" : "74.04750121886342",
        "mean_motion" : "1.21032653694051",
        "equinox" : "J2000"
      }
    }, {
      "links" : {
        "self" : "https://api.nasa.gov/neo/rest/v1/neo/3748270?api_key=t0TVs3DtDT2H8Oy2Zy8m2eVrNsAVKAexjcZXUckd"
      },
      "neo_reference_id" : "3748270",
      "name" : "(2016 FY3)",
      "nasa_jpl_url" : "http://ssd.jpl.nasa.gov/sbdb.cgi?sstr=3748270",
      "absolute_magnitude_h" : 21.3,
      "estimated_diameter" : {
        "kilometers" : {
          "estimated_diameter_min" : 0.1460679643,
          "estimated_diameter_max" : 0.3266178974
        },
        "meters" : {
          "estimated_diameter_min" : 146.0679642714,
          "estimated_diameter_max" : 326.6178974458
        },
        "miles" : {
          "estimated_diameter_min" : 0.090762397,
          "estimated_diameter_max" : 0.2029508896
        },
        "feet" : {
          "estimated_diameter_min" : 479.2256199,
          "estimated_diameter_max" : 1071.581062656
        }
      },
      "is_potentially_hazardous_asteroid" : true,
      "close_approach_data" : [ {
        "close_approach_date" : "1999-04-15",
        "epoch_date_close_approach" : 924159600000,
        "relative_velocity" : {
          "kilometers_per_second" : "25.4807017604",
          "kilometers_per_hour" : "91730.5263375023",
          "miles_per_hour" : "56997.7817678775"
        },
        "miss_distance" : {
          "astronomical" : "0.2152499155",
          "lunar" : "83.7322158813",
          "kilometers" : "32200928",
          "miles" : "20008730"
        },
        "orbiting_body" : "Earth"
      } ],
      "orbital_data" : {
        "orbit_id" : "37",
        "orbit_determination_date" : "2017-08-10 06:19:44",
        "orbit_uncertainty" : "3",
        "minimum_orbit_intersection" : ".00531978",
        "jupiter_tisserand_invariant" : "2.933",
        "epoch_osculation" : "2458000.5",
        "eccentricity" : ".6888743640988214",
        "semi_major_axis" : "2.626090217209608",
        "inclination" : "22.4562587798938",
        "ascending_node_longitude" : "35.96952498460232",
        "orbital_period" : "1554.400365241557",
        "perihelion_distance" : ".8170439887632035",
        "perihelion_argument" : "238.3267580414721",
        "aphelion_distance" : "4.435136445656013",
        "perihelion_time" : "2457542.823590551926",
        "mean_anomaly" : "105.9981141832157",
        "mean_motion" : ".2316005631818384",
        "equinox" : "J2000"
      }
    } ]
  }
}